BEIDOU-2 IGSO-4         
1 37763U 11038A   26157.61745852  .00000066  00000+0  00000+0 0  9998
2 37763  54.5986 165.7673 0159070 231.3681 173.1210  1.00287300 54540
ASTRA 1N                
1 37775U 11041A   26160.48827225  .00000137  00000+0  00000+0 0  9998
2 37775   0.0818  36.9615 0006235  56.5145 359.3802  1.00272432 44458
BSAT-3C (JCSAT-110R)    
1 37776U 11041B   26160.00721381 -.00000334  00000+0  00000+0 0  9993
2 37776   0.0180 326.2334 0000517 202.1972 201.5180  1.00271328 50387
PAKSAT-1R               
1 37779U 11042A   26160.20676779  .00000170  00000+0  00000+0 0  9996
2 37779   0.6671  84.6801 0003220 346.2845 299.0695  1.00275087 54392
SES-2                   
1 37809U 11049A   26160.39589963 -.00000179  00000+0  00000+0 0  9995
2 37809   0.0457 118.4173 0002827 318.0503 236.8341  1.00271246 53883
ARABSAT-5C              
1 37810U 11049B   26160.48844558  .00000141  00000+0  00000+0 0  9999
2 37810   0.0479 356.7506 0003463 103.5086 353.4556  1.00273522 53968
EUTELSAT 7 WEST A       
1 37816U 11051A   26160.41167304 -.00000043  00000+0  00000+0 0  9990
2 37816   0.0604 355.8024 0004182  95.4469 307.4241  1.00271210 53795
QUETZSAT 1              
1 37826U 11054A   26160.32660067 -.00000225  00000+0  00000+0 0  9990
2 37826   0.0491  71.9889 0002747   8.5688 217.7347  1.00271497 49790
INTELSAT 18 (IS-18)     
1 37834U 11056A   26160.09223808  .00000070  00000+0  00000+0 0  9990
2 37834   0.0012 354.7032 0002067 100.6597  15.3233  1.00272262 53734
EUTELSAT 16A            
1 37836U 11057A   26160.34497410  .00000121  00000+0  00000+0 0  9990
2 37836   0.0421 357.3376 0005883  83.7322 316.8199  1.00271218  7252
VIASAT-1                
1 37843U 11059A   26160.46715641 -.00000006  00000+0  00000+0 0  9995
2 37843   0.0191 322.5579 0002277 120.3422 228.0150  1.00269782 47243
ASIASAT 7               
1 37933U 11069A   26160.64795737 -.00000316  00000+0  00000+0 0  9994
2 37933   0.0191  18.8439 0001246  53.1915 164.7571  1.00268301 44783
BEIDOU-2 IGSO-5         
1 37948U 11073A   26159.79677780 -.00000162  00000+0  00000+0 0  9995
2 37948  47.6948 271.6514 0113644 221.6643 142.4598  1.00274888 53054
LUCH-5A                 
1 37951U 11074B   26159.62578126 -.00000035  00000+0  00000+0 0  9995
2 37951   8.7313  73.9336 0002316  16.8767 198.4781  1.00269774 52963
NIGCOMSAT 1R            
1 38014U 11077A   26160.49285233  .00000162  00000+0  00000+0 0  9990
2 38014   0.0169 152.8217 0002489 199.1523 125.8074  1.00272144 52884
WGS F4 (USA 233)        
1 38070U 12003A   26160.50195236  .00000000  00000+0  00000+0 0  9998
2 38070   0.0189 342.3733 0000572 292.3039 252.3159  1.00267698 44076
SES-4                   
1 38087U 12007A   26160.31364442 -.00000151  00000+0  00000+0 0  9994
2 38087   0.0257  30.6898 0002547  56.8035 261.1049  1.00270088 52142
BEIDOU-2 G5             
1 38091U 12008A   26160.63870207  .00000074  00000+0  00000+0 0  9999
2 38091   3.5539  69.7436 0009318 275.4975 201.3768  1.00270348 52293
MUOS-1                  
1 38093U 12009A   26160.46174156 -.00000113  00000+0  00000+0 0  9998
2 38093   5.4611  47.1633 0058851   1.2289 275.6982  1.00270603 52369
INTELSAT 22 (IS-22)     
1 38098U 12011A   26160.14221766 -.00000042  00000+0  00000+0 0  9992
2 38098   0.0264  67.7528 0001605   2.5980 310.4768  1.00273409  7106
APSTAR-7                
1 38107U 12013A   26159.50145144 -.00000085  00000+0  00000+0 0  9995
2 38107   0.0383  91.7182 0002994 355.6426  66.5450  1.00271176 51724
YAHSAT 1B               
1 38245U 12016A   26160.27984948  .00000143  00000+0  00000+0 0  9994
2 38245   0.0897  90.7627 0002672  10.5244 304.7183  1.00270056 45525
AEHF-2 (USA 235)        
1 38254U 12019A   26160.40993970 -.00000121  00000+0  00000+0 0  9994
2 38254   6.6337  57.5469 0002367  10.8905 320.4005  1.00270340  6902
JCSAT-13                
1 38331U 12023A   26160.50903453 -.00000339  00000+0  00000+0 0  9994
2 38331   0.0187  50.2922 0002899  49.6332 105.2229  1.00271704 51460
VINASAT-2               
1 38332U 12023B   26160.51059454 -.00000312  00000+0  00000+0 0  9990
2 38332   0.0212  26.0392 0002316  65.1538 122.3627  1.00271148 46588
NIMIQ 6                 
1 38342U 12026A   26160.46634829 -.00000157  00000+0  00000+0 0  9990
2 38342   0.0101 352.2519 0002700  84.3757 258.0028  1.00271249 50336
ZHONGXING-2A            
1 38352U 12028A   26160.36131699 -.00000275  00000+0  00000+0 0  9990
2 38352   1.4330  83.9869 0003742  35.4867   6.5666  1.00270160 51222
INTELSAT 19 (IS-19)     
1 38356U 12030A   26160.52822507 -.00000039  00000+0  00000+0 0  9998
2 38356   0.0192 333.0929 0003028 113.0646 167.9116  1.00271943 50375
ECHOSTAR 17             
1 38551U 12035A   26160.46435993  .00000000  00000+0  00000+0 0  9999
2 38551   0.0208 345.7230 0001664  95.5956 236.5862  1.00268912 50987
METEOSAT-10 (MSG-3)     
1 38552U 12035B   26160.34194074  .00000011  00000+0  00000+0 0  9991
2 38552   4.6521  61.0520 0001559 334.1792 345.8157  1.00275834 50778
SES-5                   
1 38652U 12036A   26160.34280742  .00000051  00000+0  00000+0 0  9995
2 38652   0.0521 308.5687 0001915 132.4669 305.0823  1.00271308 44379
INTELSAT 20 (IS-20)     
1 38740U 12043A   26160.42673384 -.00000008  00000+0  00000+0 0  9991
2 38740   0.0004  36.0722 0001687 138.8297 305.0277  1.00272739 50671
